CCSDS_OMM_VERS = 2.0
CREATION_DATE  = 
ORIGINATOR     = 

OBJECT_NAME    = ATLAS CENTAUR R/B
OBJECT_ID      = 1972-065B
CENTER_NAME    = EARTH
REF_FRAME      = TEME
TIME_SYSTEM    = UTC
MEAN_ELEMENT_THEORY = SGP/SGP4

EPOCH          = 2026-03-21T10:47:56.951808
MEAN_MOTION    = 14.77719253
ECCENTRICITY   = .00328859
INCLINATION    = 35.0004
RA_OF_ASC_NODE = 236.8315
ARG_OF_PERICENTER = 109.3593
MEAN_ANOMALY   = 251.0667

EPHEMERIS_TYPE = 0
CLASSIFICATION_TYPE = U
NORAD_CAT_ID   = 6155
ELEMENT_SET_NO = 999
REV_AT_EPOCH   = 84300
BSTAR          = .18464658E-3
MEAN_MOTION_DOT = .1333E-4
MEAN_MOTION_DDOT = 0

CCSDS_OMM_VERS = 2.0
CREATION_DATE  = 
ORIGINATOR     = 

OBJECT_NAME    = SL-8 R/B
OBJECT_ID      = 1975-112B
CENTER_NAME    = EARTH
REF_FRAME      = TEME
TIME_SYSTEM    = UTC
MEAN_ELEMENT_THEORY = SGP/SGP4

EPOCH          = 2026-03-21T11:12:50.445792
MEAN_MOTION    = 14.38210479
ECCENTRICITY   = .00144585
INCLINATION    = 74.0637
RA_OF_ASC_NODE = 357.2486
ARG_OF_PERICENTER = 85.5448
MEAN_ANOMALY   = 274.7357

EPHEMERIS_TYPE = 0
CLASSIFICATION_TYPE = U
NORAD_CAT_ID   = 8459
ELEMENT_SET_NO = 999
REV_AT_EPOCH   = 63356
BSTAR          = .9072435E-4
MEAN_MOTION_DOT = .25E-5
MEAN_MOTION_DDOT = 0

CCSDS_OMM_VERS = 2.0
CREATION_DATE  = 
ORIGINATOR     = 

OBJECT_NAME    = SL-3 R/B
OBJECT_ID      = 1977-057B
CENTER_NAME    = EARTH
REF_FRAME      = TEME
TIME_SYSTEM    = UTC
MEAN_ELEMENT_THEORY = SGP/SGP4

EPOCH          = 2026-03-21T13:35:24.334368
MEAN_MOTION    = 15.45818119
ECCENTRICITY   = .00063629
INCLINATION    = 97.5788
RA_OF_ASC_NODE = 253.0138
ARG_OF_PERICENTER = 234.4130
MEAN_ANOMALY   = 125.6527

EPHEMERIS_TYPE = 0
CLASSIFICATION_TYPE = U
NORAD_CAT_ID   = 10114
ELEMENT_SET_NO = 999
REV_AT_EPOCH   = 67016
BSTAR          = .35422983E-3
MEAN_MOTION_DOT = .17105E-3
MEAN_MOTION_DDOT = 0

CCSDS_OMM_VERS = 2.0
CREATION_DATE  = 
ORIGINATOR     = 

OBJECT_NAME    = SEASAT 1
OBJECT_ID      = 1978-064A
CENTER_NAME    = EARTH
REF_FRAME      = TEME
TIME_SYSTEM    = UTC
MEAN_ELEMENT_THEORY = SGP/SGP4

EPOCH          = 2026-03-21T14:25:44.796288
MEAN_MOTION    = 14.46169672
ECCENTRICITY   = .00025138
INCLINATION    = 108.0085
RA_OF_ASC_NODE = 150.4937
ARG_OF_PERICENTER = 280.2961
MEAN_ANOMALY   = 79.7901

EPHEMERIS_TYPE = 0
CLASSIFICATION_TYPE = U
NORAD_CAT_ID   = 10967
ELEMENT_SET_NO = 999
REV_AT_EPOCH   = 50823
BSTAR          = .10570379E-3
MEAN_MOTION_DOT = .241E-5
MEAN_MOTION_DDOT = 0

CCSDS_OMM_VERS = 2.0
CREATION_DATE  = 
ORIGINATOR     = 

OBJECT_NAME    = SL-14 R/B
OBJECT_ID      = 1979-011B
CENTER_NAME    = EARTH
REF_FRAME      = TEME
TIME_SYSTEM    = UTC
MEAN_ELEMENT_THEORY = SGP/SGP4

EPOCH          = 2026-03-21T12:27:09.984384
MEAN_MOTION    = 14.91922530
ECCENTRICITY   = .00166241
INCLINATION    = 82.5205
RA_OF_ASC_NODE = 85.3424
ARG_OF_PERICENTER = 23.5095
MEAN_ANOMALY   = 336.6881

EPHEMERIS_TYPE = 0
CLASSIFICATION_TYPE = U
NORAD_CAT_ID   = 11267
ELEMENT_SET_NO = 999
REV_AT_EPOCH   = 53054
BSTAR          = .62020319E-4
MEAN_MOTION_DOT = .654E-5
MEAN_MOTION_DDOT = 0

CCSDS_OMM_VERS = 2.0
CREATION_DATE  = 
ORIGINATOR     = 

OBJECT_NAME    = SL-8 R/B
OBJECT_ID      = 1979-089B
CENTER_NAME    = EARTH
REF_FRAME      = TEME
TIME_SYSTEM    = UTC
MEAN_ELEMENT_THEORY = SGP/SGP4

EPOCH          = 2026-03-21T09:32:54.936384
MEAN_MOTION    = 14.42356977
ECCENTRICITY   = .00169757
INCLINATION    = 74.0674
RA_OF_ASC_NODE = 69.3678
ARG_OF_PERICENTER = 240.7215
MEAN_ANOMALY   = 119.2245

EPHEMERIS_TYPE = 0
CLASSIFICATION_TYPE = U
NORAD_CAT_ID   = 11574
ELEMENT_SET_NO = 999
REV_AT_EPOCH   = 43779
BSTAR          = .49517478E-4
MEAN_MOTION_DOT = .137E-5
MEAN_MOTION_DDOT = 0

CCSDS_OMM_VERS = 2.0
CREATION_DATE  = 
ORIGINATOR     = 

OBJECT_NAME    = SL-14 R/B
OBJECT_ID      = 1980-005B
CENTER_NAME    = EARTH
REF_FRAME      = TEME
TIME_SYSTEM    = UTC
MEAN_ELEMENT_THEORY = SGP/SGP4

EPOCH          = 2026-03-21T14:33:46.910880
MEAN_MOTION    = 14.90943335
ECCENTRICITY   = .00170127
INCLINATION    = 82.5122
RA_OF_ASC_NODE = 295.9304
ARG_OF_PERICENTER = 120.8815
MEAN_ANOMALY   = 239.4080

EPHEMERIS_TYPE = 0
CLASSIFICATION_TYPE = U
NORAD_CAT_ID   = 11672
ELEMENT_SET_NO = 999
REV_AT_EPOCH   = 47826
BSTAR          = .51101808E-4
MEAN_MOTION_DOT = .531E-5
MEAN_MOTION_DDOT = 0

CCSDS_OMM_VERS = 2.0
CREATION_DATE  = 
ORIGINATOR     = 

OBJECT_NAME    = SL-8 R/B
OBJECT_ID      = 1981-003B
CENTER_NAME    = EARTH
REF_FRAME      = TEME
TIME_SYSTEM    = UTC
MEAN_ELEMENT_THEORY = SGP/SGP4

EPOCH          = 2026-03-21T14:07:26.753376
MEAN_MOTION    = 15.11462275
ECCENTRICITY   = .02613667
INCLINATION    = 82.9349
RA_OF_ASC_NODE = 279.0176
ARG_OF_PERICENTER = 137.1669
MEAN_ANOMALY   = 225.0258

EPHEMERIS_TYPE = 0
CLASSIFICATION_TYPE = U
NORAD_CAT_ID   = 12139
ELEMENT_SET_NO = 999
REV_AT_EPOCH   = 31647
BSTAR          = .68516359E-3
MEAN_MOTION_DOT = .27081E-3
MEAN_MOTION_DDOT = 0

CCSDS_OMM_VERS = 2.0
CREATION_DATE  = 
ORIGINATOR     = 

OBJECT_NAME    = SL-3 R/B
OBJECT_ID      = 1981-046B
CENTER_NAME    = EARTH
REF_FRAME      = TEME
TIME_SYSTEM    = UTC
MEAN_ELEMENT_THEORY = SGP/SGP4

EPOCH          = 2026-03-21T14:14:45.522816
MEAN_MOTION    = 15.42273119
ECCENTRICITY   = .00186296
INCLINATION    = 81.2281
RA_OF_ASC_NODE = 275.4446
ARG_OF_PERICENTER = 340.6181
MEAN_ANOMALY   = 19.4351

EPHEMERIS_TYPE = 0
CLASSIFICATION_TYPE = U
NORAD_CAT_ID   = 12465
ELEMENT_SET_NO = 999
REV_AT_EPOCH   = 44026
BSTAR          = .34393005E-3
MEAN_MOTION_DOT = .14923E-3
MEAN_MOTION_DDOT = 0

CCSDS_OMM_VERS = 2.0
CREATION_DATE  = 
ORIGINATOR     = 

OBJECT_NAME    = SL-3 R/B
OBJECT_ID      = 1981-103B
CENTER_NAME    = EARTH
REF_FRAME      = TEME
TIME_SYSTEM    = UTC
MEAN_ELEMENT_THEORY = SGP/SGP4

EPOCH          = 2026-03-21T14:38:58.348320
MEAN_MOTION    = 15.21511763
ECCENTRICITY   = .00124364
INCLINATION    = 81.1608
RA_OF_ASC_NODE = 199.4484
ARG_OF_PERICENTER = 243.3173
MEAN_ANOMALY   = 116.6786

EPHEMERIS_TYPE = 0
CLASSIFICATION_TYPE = U
NORAD_CAT_ID   = 12904
ELEMENT_SET_NO = 999
REV_AT_EPOCH   = 97504
BSTAR          = .31686819E-3
MEAN_MOTION_DOT = .717E-4
MEAN_MOTION_DDOT = 0

CCSDS_OMM_VERS = 2.0
CREATION_DATE  = 
ORIGINATOR     = 

OBJECT_NAME    = SL-3 R/B
OBJECT_ID      = 1982-013B
CENTER_NAME    = EARTH
REF_FRAME      = TEME
TIME_SYSTEM    = UTC
MEAN_ELEMENT_THEORY = SGP/SGP4

EPOCH          = 2026-03-21T14:43:35.657760
MEAN_MOTION    = 15.22121542
ECCENTRICITY   = .00232902
INCLINATION    = 81.1745
RA_OF_ASC_NODE = 146.7956
ARG_OF_PERICENTER = 137.9160
MEAN_ANOMALY   = 222.3866

EPHEMERIS_TYPE = 0
CLASSIFICATION_TYPE = U
NORAD_CAT_ID   = 13068
ELEMENT_SET_NO = 999
REV_AT_EPOCH   = 40616
BSTAR          = .20749939E-3
MEAN_MOTION_DOT = .4815E-4
MEAN_MOTION_DDOT = 0

CCSDS_OMM_VERS = 2.0
CREATION_DATE  = 
ORIGINATOR     = 

OBJECT_NAME    = SL-3 R/B
OBJECT_ID      = 1982-039B
CENTER_NAME    = EARTH
REF_FRAME      = TEME
TIME_SYSTEM    = UTC
MEAN_ELEMENT_THEORY = SGP/SGP4

EPOCH          = 2026-03-21T14:00:29.345472
MEAN_MOTION    = 15.10144441
ECCENTRICITY   = .00290851
INCLINATION    = 81.1579
RA_OF_ASC_NODE = 202.2481
ARG_OF_PERICENTER = 285.3562
MEAN_ANOMALY   = 74.4450

EPHEMERIS_TYPE = 0
CLASSIFICATION_TYPE = U
NORAD_CAT_ID   = 13154
ELEMENT_SET_NO = 999
REV_AT_EPOCH   = 38343
BSTAR          = .16917717E-3
MEAN_MOTION_DOT = .2809E-4
MEAN_MOTION_DDOT = 0

