ATLAS CENTAUR R/B       
1 06155U 72065B   26080.44996472  .00001333  00000+0  18465-3 0  9994
2 06155  35.0004 236.8315 0032885 109.3593 251.0667 14.77719253843003
SL-8 R/B                
1 08459U 75112B   26080.46725053  .00000250  00000+0  90724-4 0  9992
2 08459  74.0637 357.2486 0014458  85.5448 274.7357 14.38210479633563
SL-3 R/B                
1 10114U 77057B   26080.56625387  .00017105  00000+0  35423-3 0  9994
2 10114  97.5788 253.0138 0006362 234.4130 125.6527 15.45818119670160
SEASAT 1                
1 10967U 78064A   26080.60121292  .00000241  00000+0  10570-3 0  9999
2 10967 108.0085 150.4937 0002513 280.2961  79.7901 14.46169672508232
SL-14 R/B               
1 11267U 79011B   26080.51886556  .00000654  00000+0  62020-4 0  9993
2 11267  82.5205  85.3424 0016624  23.5095 336.6881 14.91922530530548
SL-8 R/B                
1 11574U 79089B   26080.39785806  .00000137  00000+0  49517-4 0  9993
2 11574  74.0674  69.3678 0016975 240.7215 119.2245 14.42356977437798
SL-14 R/B               
1 11672U 80005B   26080.60679295  .00000531  00000+0  51102-4 0  9991
2 11672  82.5122 295.9304 0017012 120.8815 239.4080 14.90943335478261
SL-8 R/B                
1 12139U 81003B   26080.58850409  .00027081  00000+0  68516-3 0  9999
2 12139  82.9349 279.0176 0261366 137.1669 225.0258 15.11462275316471
SL-3 R/B                
1 12465U 81046B   26080.59358244  .00014923  00000+0  34393-3 0  9996
2 12465  81.2281 275.4446 0018629 340.6181  19.4351 15.42273119440267
SL-3 R/B                
1 12904U 81103B   26080.61039755  .00007170  00000+0  31687-3 0  9993
2 12904  81.1608 199.4484 0012436 243.3173 116.6786 15.21511763975042
SL-3 R/B                
1 13068U 82013B   26080.61360715  .00004815  00000+0  20750-3 0  9991
2 13068  81.1745 146.7956 0023290 137.9160 222.3866 15.22121542406168
SL-3 R/B                
1 13154U 82039B   26080.58367298  .00002809  00000+0  16918-3 0  9996
2 13154  81.1579 202.2481 0029085 285.3562  74.4450 15.10144441383431
